0 DELTA 1 DEB
1 12169U 78026J   13282.57338832  .00000488  00000-0  20477-3 0  7055
2 12169 098.4202 280.1775 0072855 025.7050 096.2022 14.28694617698059
0 DELTA 1 DEB
1 12169U 78026J   13286.84480622  .00000569  00000-0  23612-3 0  7070
2 12169 098.4197 284.3020 0072593 013.1226 105.4057 14.28698656698661
0 DELTA 1 DEB
1 12169U 78026J   13288.93386928  .00000632  00000-0  26066-3 0  7084
2 12169 098.4199 286.3189 0072468 006.9677 050.1219 14.28703041698966
0 DELTA 1 DEB
1 12169U 78026J   13291.53680559  .00000608  00000-0  25161-3 0  7090
2 12169 098.4203 288.8317 0072285 359.2625 117.9293 14.28706558699338
0 DELTA 1 DEB
1 12169U 78026J   13293.84800007  .00000739  00000-0  30201-3 0  7106
2 12169 098.4206 291.0631 0072147 352.4228 125.2364 14.28709424699669
0 DELTA 1 DEB
1 12169U 78026J   13296.00887947  .00000773  00000-0  31545-3 0  7116
2 12169 098.4206 293.1495 0072016 346.0113 079.4575 14.28713334699970
